SL-3 R/B                
1 13403U 82079B   25350.29298431  .00004343  00000+0  17840-3 0  9996
2 13403  81.1470 291.4719 0027089  87.6522 272.7812 15.23630770364997
SL-14 R/B               
1 13553U 82092B   25350.12344013  .00000440  00000+0  46767-4 0  9992
2 13553  82.5679 219.5475 0019390 215.1432 259.6343 14.86558867316515
SL-3 R/B                
1 13819U 83010B   25350.33756449  .00011154  00000+0  24645-3 0  9995
2 13819  81.1039 104.2266 0016998 338.5147  21.5381 15.43555798345072
SL-3 R/B                
1 14208U 83075B   25350.23964744  .00007716  00000+0  21922-3 0  9991
2 14208  97.6102 346.8410 0023128 163.1139 197.0879 15.36207403317337
COSMOS 1536             
1 14699U 84013A   25350.02670869  .00004318  00000+0  18427-3 0  9998
2 14699  82.5451 190.9046 0013761 213.1913 146.8462 15.22555658259880
SL-14 R/B               
1 14820U 84027B   25350.32667764  .00000531  00000+0  58074-4 0  9998
2 14820  82.5413 323.1920 0016432 247.8010 112.1464 14.85878417235257
SL-8 R/B                
1 15483U 85006B   25350.37284561  .00000218  00000+0  81148-4 0  9997
2 15483  74.0466  54.4509 0018838 345.8422  91.8543 14.37723262142052
SL-12 R/B(2)            
1 15772U 85042D   25350.21267808  .00000056  00000+0  46728-4 0  9991
2 15772  71.1081 264.0830 0037506 256.4308 265.7161 14.21953003102520
SL-14 R/B               
1 15945U 85069B   25350.33684906  .00000557  00000+0  60194-4 0  9996
2 15945  82.5270 103.3213 0020293 107.4007 252.9431 14.86328985160454
SL-16 R/B               
1 16182U 85097B   25350.31843074  .00000250  00000+0  14935-3 0  9993
2 16182  71.0037 316.0687 0006932   5.1990  97.9907 14.16586295 75429
SL-14 R/B               
1 16496U 86006B   25350.33448681  .00000614  00000+0  62674-4 0  9997
2 16496  82.5267 338.1684 0076466 187.8232 172.1799 14.86676632136826
COSMOS 1743             
1 16719U 86034A   25350.19999351  .00023146  00000+0  37887-3 0  9997
2 16719  82.5339 160.9970 0004696 237.7904 122.2893 15.52345162167279
