CCSDS_OMM_VERS = 2.0
CREATION_DATE  = 
ORIGINATOR     = 

OBJECT_NAME    = SL-3 R/B
OBJECT_ID      = 1982-079B
CENTER_NAME    = EARTH
REF_FRAME      = TEME
TIME_SYSTEM    = UTC
MEAN_ELEMENT_THEORY = SGP/SGP4

EPOCH          = 2025-12-16T07:01:53.844384
MEAN_MOTION    = 15.23630770
ECCENTRICITY   = .00270893
INCLINATION    = 81.1470
RA_OF_ASC_NODE = 291.4719
ARG_OF_PERICENTER = 87.6522
MEAN_ANOMALY   = 272.7812

EPHEMERIS_TYPE = 0
CLASSIFICATION_TYPE = U
NORAD_CAT_ID   = 13403
ELEMENT_SET_NO = 999
REV_AT_EPOCH   = 36499
BSTAR          = .17840053E-3
MEAN_MOTION_DOT = .4343E-4
MEAN_MOTION_DDOT = 0

CCSDS_OMM_VERS = 2.0
CREATION_DATE  = 
ORIGINATOR     = 

OBJECT_NAME    = SL-14 R/B
OBJECT_ID      = 1982-092B
CENTER_NAME    = EARTH
REF_FRAME      = TEME
TIME_SYSTEM    = UTC
MEAN_ELEMENT_THEORY = SGP/SGP4

EPOCH          = 2025-12-16T02:57:45.227232
MEAN_MOTION    = 14.86558867
ECCENTRICITY   = .00193902
INCLINATION    = 82.5679
RA_OF_ASC_NODE = 219.5475
ARG_OF_PERICENTER = 215.1432
MEAN_ANOMALY   = 259.6343

EPHEMERIS_TYPE = 0
CLASSIFICATION_TYPE = U
NORAD_CAT_ID   = 13553
ELEMENT_SET_NO = 999
REV_AT_EPOCH   = 31651
BSTAR          = .46767448E-4
MEAN_MOTION_DOT = .44E-5
MEAN_MOTION_DDOT = 0

CCSDS_OMM_VERS = 2.0
CREATION_DATE  = 
ORIGINATOR     = 

OBJECT_NAME    = SL-3 R/B
OBJECT_ID      = 1983-010B
CENTER_NAME    = EARTH
REF_FRAME      = TEME
TIME_SYSTEM    = UTC
MEAN_ELEMENT_THEORY = SGP/SGP4

EPOCH          = 2025-12-16T08:06:05.571936
MEAN_MOTION    = 15.43555798
ECCENTRICITY   = .00169988
INCLINATION    = 81.1039
RA_OF_ASC_NODE = 104.2266
ARG_OF_PERICENTER = 338.5147
MEAN_ANOMALY   = 21.5381

EPHEMERIS_TYPE = 0
CLASSIFICATION_TYPE = U
NORAD_CAT_ID   = 13819
ELEMENT_SET_NO = 999
REV_AT_EPOCH   = 34507
BSTAR          = .24644868E-3
MEAN_MOTION_DOT = .11154E-3
MEAN_MOTION_DDOT = 0

CCSDS_OMM_VERS = 2.0
CREATION_DATE  = 
ORIGINATOR     = 

OBJECT_NAME    = SL-3 R/B
OBJECT_ID      = 1983-075B
CENTER_NAME    = EARTH
REF_FRAME      = TEME
TIME_SYSTEM    = UTC
MEAN_ELEMENT_THEORY = SGP/SGP4

EPOCH          = 2025-12-16T05:45:05.538816
MEAN_MOTION    = 15.36207403
ECCENTRICITY   = .00231282
INCLINATION    = 97.6102
RA_OF_ASC_NODE = 346.8410
ARG_OF_PERICENTER = 163.1139
MEAN_ANOMALY   = 197.0879

EPHEMERIS_TYPE = 0
CLASSIFICATION_TYPE = U
NORAD_CAT_ID   = 14208
ELEMENT_SET_NO = 999
REV_AT_EPOCH   = 31733
BSTAR          = .21922192E-3
MEAN_MOTION_DOT = .7716E-4
MEAN_MOTION_DDOT = 0

CCSDS_OMM_VERS = 2.0
CREATION_DATE  = 
ORIGINATOR     = 

OBJECT_NAME    = COSMOS 1536
OBJECT_ID      = 1984-013A
CENTER_NAME    = EARTH
REF_FRAME      = TEME
TIME_SYSTEM    = UTC
MEAN_ELEMENT_THEORY = SGP/SGP4

EPOCH          = 2025-12-16T00:38:27.630816
MEAN_MOTION    = 15.22555658
ECCENTRICITY   = .00137616
INCLINATION    = 82.5451
RA_OF_ASC_NODE = 190.9046
ARG_OF_PERICENTER = 213.1913
MEAN_ANOMALY   = 146.8462

EPHEMERIS_TYPE = 0
CLASSIFICATION_TYPE = U
NORAD_CAT_ID   = 14699
ELEMENT_SET_NO = 999
REV_AT_EPOCH   = 25988
BSTAR          = .1842666E-3
MEAN_MOTION_DOT = .4318E-4
MEAN_MOTION_DDOT = 0

CCSDS_OMM_VERS = 2.0
CREATION_DATE  = 
ORIGINATOR     = 

OBJECT_NAME    = SL-14 R/B
OBJECT_ID      = 1984-027B
CENTER_NAME    = EARTH
REF_FRAME      = TEME
TIME_SYSTEM    = UTC
MEAN_ELEMENT_THEORY = SGP/SGP4

EPOCH          = 2025-12-16T07:50:24.948096
MEAN_MOTION    = 14.85878417
ECCENTRICITY   = .00164327
INCLINATION    = 82.5413
RA_OF_ASC_NODE = 323.1920
ARG_OF_PERICENTER = 247.8010
MEAN_ANOMALY   = 112.1464

EPHEMERIS_TYPE = 0
CLASSIFICATION_TYPE = U
NORAD_CAT_ID   = 14820
ELEMENT_SET_NO = 999
REV_AT_EPOCH   = 23525
BSTAR          = .58073991E-4
MEAN_MOTION_DOT = .531E-5
MEAN_MOTION_DDOT = 0

CCSDS_OMM_VERS = 2.0
CREATION_DATE  = 
ORIGINATOR     = 

OBJECT_NAME    = SL-8 R/B
OBJECT_ID      = 1985-006B
CENTER_NAME    = EARTH
REF_FRAME      = TEME
TIME_SYSTEM    = UTC
MEAN_ELEMENT_THEORY = SGP/SGP4

EPOCH          = 2025-12-16T08:56:53.860704
MEAN_MOTION    = 14.37723262
ECCENTRICITY   = .00188383
INCLINATION    = 74.0466
RA_OF_ASC_NODE = 54.4509
ARG_OF_PERICENTER = 345.8422
MEAN_ANOMALY   = 91.8543

EPHEMERIS_TYPE = 0
CLASSIFICATION_TYPE = U
NORAD_CAT_ID   = 15483
ELEMENT_SET_NO = 999
REV_AT_EPOCH   = 14205
BSTAR          = .81147944E-4
MEAN_MOTION_DOT = .218E-5
MEAN_MOTION_DDOT = 0

CCSDS_OMM_VERS = 2.0
CREATION_DATE  = 
ORIGINATOR     = 

OBJECT_NAME    = SL-12 R/B(2)
OBJECT_ID      = 1985-042D
CENTER_NAME    = EARTH
REF_FRAME      = TEME
TIME_SYSTEM    = UTC
MEAN_ELEMENT_THEORY = SGP/SGP4

EPOCH          = 2025-12-16T05:06:15.386112
MEAN_MOTION    = 14.21953003
ECCENTRICITY   = .00375065
INCLINATION    = 71.1081
RA_OF_ASC_NODE = 264.0830
ARG_OF_PERICENTER = 256.4308
MEAN_ANOMALY   = 265.7161

EPHEMERIS_TYPE = 0
CLASSIFICATION_TYPE = U
NORAD_CAT_ID   = 15772
ELEMENT_SET_NO = 999
REV_AT_EPOCH   = 10252
BSTAR          = .46727525E-4
MEAN_MOTION_DOT = .56E-6
MEAN_MOTION_DDOT = 0

CCSDS_OMM_VERS = 2.0
CREATION_DATE  = 
ORIGINATOR     = 

OBJECT_NAME    = SL-14 R/B
OBJECT_ID      = 1985-069B
CENTER_NAME    = EARTH
REF_FRAME      = TEME
TIME_SYSTEM    = UTC
MEAN_ELEMENT_THEORY = SGP/SGP4

EPOCH          = 2025-12-16T08:05:03.758784
MEAN_MOTION    = 14.86328985
ECCENTRICITY   = .00202934
INCLINATION    = 82.5270
RA_OF_ASC_NODE = 103.3213
ARG_OF_PERICENTER = 107.4007
MEAN_ANOMALY   = 252.9431

EPHEMERIS_TYPE = 0
CLASSIFICATION_TYPE = U
NORAD_CAT_ID   = 15945
ELEMENT_SET_NO = 999
REV_AT_EPOCH   = 16045
BSTAR          = .60194256E-4
MEAN_MOTION_DOT = .557E-5
MEAN_MOTION_DDOT = 0

CCSDS_OMM_VERS = 2.0
CREATION_DATE  = 
ORIGINATOR     = 

OBJECT_NAME    = SL-16 R/B
OBJECT_ID      = 1985-097B
CENTER_NAME    = EARTH
REF_FRAME      = TEME
TIME_SYSTEM    = UTC
MEAN_ELEMENT_THEORY = SGP/SGP4

EPOCH          = 2025-12-16T07:38:32.415936
MEAN_MOTION    = 14.16586295
ECCENTRICITY   = .00069324
INCLINATION    = 71.0037
RA_OF_ASC_NODE = 316.0687
ARG_OF_PERICENTER = 5.1990
MEAN_ANOMALY   = 97.9907

EPHEMERIS_TYPE = 0
CLASSIFICATION_TYPE = U
NORAD_CAT_ID   = 16182
ELEMENT_SET_NO = 999
REV_AT_EPOCH   = 7542
BSTAR          = .14935102E-3
MEAN_MOTION_DOT = .25E-5
MEAN_MOTION_DDOT = 0

CCSDS_OMM_VERS = 2.0
CREATION_DATE  = 
ORIGINATOR     = 

OBJECT_NAME    = SL-14 R/B
OBJECT_ID      = 1986-006B
CENTER_NAME    = EARTH
REF_FRAME      = TEME
TIME_SYSTEM    = UTC
MEAN_ELEMENT_THEORY = SGP/SGP4

EPOCH          = 2025-12-16T08:01:39.660384
MEAN_MOTION    = 14.86676632
ECCENTRICITY   = .00764663
INCLINATION    = 82.5267
RA_OF_ASC_NODE = 338.1684
ARG_OF_PERICENTER = 187.8232
MEAN_ANOMALY   = 172.1799

EPHEMERIS_TYPE = 0
CLASSIFICATION_TYPE = U
NORAD_CAT_ID   = 16496
ELEMENT_SET_NO = 999
REV_AT_EPOCH   = 13682
BSTAR          = .62673947E-4
MEAN_MOTION_DOT = .614E-5
MEAN_MOTION_DDOT = 0

CCSDS_OMM_VERS = 2.0
CREATION_DATE  = 
ORIGINATOR     = 

OBJECT_NAME    = COSMOS 1743
OBJECT_ID      = 1986-034A
CENTER_NAME    = EARTH
REF_FRAME      = TEME
TIME_SYSTEM    = UTC
MEAN_ELEMENT_THEORY = SGP/SGP4

EPOCH          = 2025-12-16T04:47:59.439264
MEAN_MOTION    = 15.52345162
ECCENTRICITY   = .00046961
INCLINATION    = 82.5339
RA_OF_ASC_NODE = 160.9970
ARG_OF_PERICENTER = 237.7904
MEAN_ANOMALY   = 122.2893

EPHEMERIS_TYPE = 0
CLASSIFICATION_TYPE = U
NORAD_CAT_ID   = 16719
ELEMENT_SET_NO = 999
REV_AT_EPOCH   = 16727
BSTAR          = .37887341E-3
MEAN_MOTION_DOT = .23146E-3
MEAN_MOTION_DDOT = 0

